{
  "norad_id": 55990,
  "name": "STARLINK-5946",
  "history": [
    {
      "epoch": "2026-04-13T00:44:59.276832Z",
      "apogee_km": 483.906830695807,
      "perigee_km": 482.22514984289137,
      "latitude_deg": -1.7447245795363708e-05,
      "longitude_deg": 13.011632186047661,
      "height_km": 482.8684101856726,
      "semi_major_axis_km": 6861.202990269349,
      "eccentricity": 0.00012255,
      "inclination_deg": 43.0014,
      "raan_deg": 225.4865,
      "arg_perigee_deg": 268.2478,
      "mean_anomaly_deg": 91.8233,
      "mean_motion_rev_day": 15.27574358
    },
    {
      "epoch": "2026-04-14T14:24:44.540928Z",
      "apogee_km": 483.9124004733112,
      "perigee_km": 482.2135673572948,
      "latitude_deg": 1.7208116247813803e-05,
      "longitude_deg": 157.6639232928985,
      "height_km": 482.83001018063,
      "semi_major_axis_km": 6861.199983915303,
      "eccentricity": 0.0001238,
      "inclination_deg": 43.0008,
      "raan_deg": 216.6241,
      "arg_perigee_deg": 270.6495,
      "mean_anomaly_deg": 89.4215,
      "mean_motion_rev_day": 15.27575362
    },
    {
      "epoch": "2026-04-15T13:57:05.588352Z",
      "apogee_km": 483.91470845457025,
      "perigee_km": 482.2199909801893,
      "latitude_deg": -6.060989262446024e-06,
      "longitude_deg": 158.0706828797718,
      "height_km": 482.83913638970114,
      "semi_major_axis_km": 6861.20434971738,
      "eccentricity": 0.0001235,
      "inclination_deg": 43.0009,
      "raan_deg": 211.0853,
      "arg_perigee_deg": 270.3299,
      "mean_anomaly_deg": 89.7411,
      "mean_motion_rev_day": 15.27573904
    },
    {
      "epoch": "2026-04-16T13:29:26.051712Z",
      "apogee_km": 483.9286113162216,
      "perigee_km": 482.17763559671675,
      "latitude_deg": 3.611449364068342e-05,
      "longitude_deg": 158.47975265466732,
      "height_km": 482.79981680633705,
      "semi_major_axis_km": 6861.190123456469,
      "eccentricity": 0.0001276,
      "inclination_deg": 43.0011,
      "raan_deg": 205.5463,
      "arg_perigee_deg": 271.9655,
      "mean_anomaly_deg": 88.1051,
      "mean_motion_rev_day": 15.27578655
    },
    {
      "epoch": "2026-04-17T22:26:43.510848Z",
      "apogee_km": 483.7919670705296,
      "perigee_km": 482.3224364963926,
      "latitude_deg": 1.498659915883162e-05,
      "longitude_deg": 15.047978045516587,
      "height_km": 482.6496436924357,
      "semi_major_axis_km": 6861.194201783461,
      "eccentricity": 0.00010709,
      "inclination_deg": 43.0015,
      "raan_deg": 197.7907,
      "arg_perigee_deg": 284.5138,
      "mean_anomaly_deg": 75.5595,
      "mean_motion_rev_day": 15.27577293
    },
    {
      "epoch": "2026-04-18T12:34:07.781088Z",
      "apogee_km": 483.97653207413987,
      "perigee_km": 482.1388296908135,
      "latitude_deg": 3.94637512781607e-05,
      "longitude_deg": 159.2939504463737,
      "height_km": 482.7782965787143,
      "semi_major_axis_km": 6861.194680882477,
      "eccentricity": 0.00013392,
      "inclination_deg": 43.001,
      "raan_deg": 194.4678,
      "arg_perigee_deg": 273.5034,
      "mean_anomaly_deg": 86.5665,
      "mean_motion_rev_day": 15.27577133
    },
    {
      "epoch": "2026-04-19T12:06:28.094112Z",
      "apogee_km": 483.91849395716054,
      "perigee_km": 482.16848126199056,
      "latitude_deg": 3.493533239807054e-05,
      "longitude_deg": 159.7033959915767,
      "height_km": 482.80616693945353,
      "semi_major_axis_km": 6861.180487609575,
      "eccentricity": 0.00012753,
      "inclination_deg": 43.0011,
      "raan_deg": 188.9286,
      "arg_perigee_deg": 270.9193,
      "mean_anomaly_deg": 89.1513,
      "mean_motion_rev_day": 15.27581873
    },
    {
      "epoch": "2026-04-20T11:38:49.784352Z",
      "apogee_km": 483.96540320319855,
      "perigee_km": 482.1781955351389,
      "latitude_deg": -2.755765111258094e-05,
      "longitude_deg": 160.10752455439723,
      "height_km": 482.8283845127821,
      "semi_major_axis_km": 6861.208799369168,
      "eccentricity": 0.00013024,
      "inclination_deg": 43.0012,
      "raan_deg": 183.3899,
      "arg_perigee_deg": 271.2937,
      "mean_anomaly_deg": 88.7765,
      "mean_motion_rev_day": 15.27572418
    },
    {
      "epoch": "2026-04-21T20:36:05.760000Z",
      "apogee_km": 484.8446952612967,
      "perigee_km": 481.1657508013077,
      "latitude_deg": 5.874959030129435e-06,
      "longitude_deg": 16.68120095603921,
      "height_km": 482.59938194520873,
      "semi_major_axis_km": 6861.142223031302,
      "eccentricity": 0.0002681,
      "inclination_deg": 43.0019,
      "raan_deg": 175.6335,
      "arg_perigee_deg": 275.732,
      "mean_anomaly_deg": 84.3226,
      "mean_motion_rev_day": 15.27594652
    },
    {
      "epoch": "2026-04-22T04:26:55.339872Z",
      "apogee_km": 484.4709412395641,
      "perigee_km": 481.75155410908155,
      "latitude_deg": -2.677049873486044e-05,
      "longitude_deg": -103.19608665382026,
      "height_km": 482.53063351188194,
      "semi_major_axis_km": 6861.248247674323,
      "eccentricity": 0.00019817,
      "inclination_deg": 42.9978,
      "raan_deg": 173.7851,
      "arg_perigee_deg": 285.2452,
      "mean_anomaly_deg": 74.818,
      "mean_motion_rev_day": 15.27559244
    },
    {
      "epoch": "2026-04-24T11:22:22.033632Z",
      "apogee_km": 483.90322268920136,
      "perigee_km": 482.16185785988,
      "latitude_deg": 5.4044657330503084e-05,
      "longitude_deg": 137.76671946669126,
      "height_km": 482.8182723012333,
      "semi_major_axis_km": 6861.169540274541,
      "eccentricity": 0.0001269,
      "inclination_deg": 43.0014,
      "raan_deg": 160.8647,
      "arg_perigee_deg": 269.4083,
      "mean_anomaly_deg": 90.6624,
      "mean_motion_rev_day": 15.27585529
    },
    {
      "epoch": "2026-04-25T10:54:43.083648Z",
      "apogee_km": 483.870875216081,
      "perigee_km": 482.24888827323684,
      "latitude_deg": -1.6920900595702086e-05,
      "longitude_deg": 138.1738150943446,
      "height_km": 482.8087359173508,
      "semi_major_axis_km": 6861.196881744659,
      "eccentricity": 0.0001182,
      "inclination_deg": 43.0016,
      "raan_deg": 155.3263,
      "arg_perigee_deg": 271.9678,
      "mean_anomaly_deg": 88.1038,
      "mean_motion_rev_day": 15.27576398
    }
  ]
}